{"type": "FeatureCollection", "features": [ {"type": "Feature", "properties": {"norad_id": 38779, "name": "GSAT-10 (GAGAN/PRN 128)", "group": "gnss", "lat": 0.028416949489720796, "lon": -54.05574832452275, "alt_km": 35796.33147706176, "timestamp": "2025-12-19T08:58:49.580979+00:00", "meta": {"OBJECT_NAME": "GSAT-10 (GAGAN/PRN 128)", "OBJECT_ID": "2012-051B", "EPOCH": "2025-12-18T15:24:07.068672", "MEAN_MOTION": 1.00272485, "ECCENTRICITY": 0.00024695, "INCLINATION": 0.0769, "RA_OF_ASC_NODE": 265.4602, "ARG_OF_PERICENTER": 219.0133, "MEAN_ANOMALY": 277.0818, "EPHEMERIS_TYPE": 0, "CLASSIFICATION_TYPE": "U", "NORAD_CAT_ID": 38779, "ELEMENT_SET_NO": 999, "REV_AT_EPOCH": 4828, "BSTAR": 0, "MEAN_MOTION_DOT": -1.4e-06, "MEAN_MOTION_DDOT": 0}, "tle": {"line1": "1 38779U 12051B   25352.64174848 -.00000140  00000+0  00000+0 0  9996", "line2": "2 38779   0.0769 265.4602 0002469 219.0133 277.0818  1.00272485 48287"}}, "geometry": {"type": "Point", "coordinates": [-54.05574832452275, 0.028416949489720796]}}, {"type": "Feature", "properties": {"norad_id": 38833, "name": "GPS BIIF-3  (PRN 24)", "group": "gnss", "lat": 24.277349409877598, "lon": 170.42635452833403, "alt_km": 19786.41789438042, "timestamp": "2025-12-19T08:58:49.580991+00:00", "meta": {"OBJECT_NAME": "GPS BIIF-3  (PRN 24)", "OBJECT_ID": "2012-053A", "EPOCH": "2025-12-18T08:03:02.727072", "MEAN_MOTION": 2.00565083, "ECCENTRICITY": 0.01760229, "INCLINATION": 53.559, "RA_OF_ASC_NODE": 151.0095, "ARG_OF_PERICENTER": 64.0757, "MEAN_ANOMALY": 297.7154, "EPHEMERIS_TYPE": 0, "CLASSIFICATION_TYPE": "U", "NORAD_CAT_ID": 38833, "ELEMENT_SET_NO": 999, "REV_AT_EPOCH": 9581, "BSTAR": 0, "MEAN_MOTION_DOT": 6.1e-07, "MEAN_MOTION_DDOT": 0}, "tle": {"line1": "1 38833U 12053A   25352.33544823  .00000061  00000+0  00000+0 0  9990", "line2": "2 38833  53.5590 151.0095 0176022  64.0757 297.7154  2.00565083 95819"}}, "geometry": {"type": "Point", "coordinates": [170.42635452833403, 24.277349409877598]}}, {"type": "Feature", "properties": {"norad_id": 38857, "name": "GSAT0103 (GALILEO-FM3)", "group": "gnss", "lat": -9.746215920434942, "lon": 99.75014390771268, "alt_km": 23222.178990204713, "timestamp": "2025-12-19T08:58:49.581002+00:00", "meta": {"OBJECT_NAME": "GSAT0103 (GALILEO-FM3)", "OBJECT_ID": "2012-055A", "EPOCH": "2025-12-18T05:17:11.481792", "MEAN_MOTION": 1.70473412, "ECCENTRICITY": 0.00028558, "INCLINATION": 55.6954, "RA_OF_ASC_NODE": 106.5161, "ARG_OF_PERICENTER": 269.0808, "MEAN_ANOMALY": 90.8455, "EPHEMERIS_TYPE": 0, "CLASSIFICATION_TYPE": "U", "NORAD_CAT_ID": 38857, "ELEMENT_SET_NO": 999, "REV_AT_EPOCH": 8192, "BSTAR": 0, "MEAN_MOTION_DOT": -7e-08, "MEAN_MOTION_DDOT": 0}, "tle": {"line1": "1 38857U 12055A   25352.22027178 -.00000007  00000+0  00000+0 0  9996", "line2": "2 38857  55.6954 106.5161 0002855 269.0808  90.8455  1.70473412 81920"}}, "geometry": {"type": "Point", "coordinates": [99.75014390771268, -9.746215920434942]}}, {"type": "Feature", "properties": {"norad_id": 38953, "name": "BEIDOU-2 G6 (C02)", "group": "gnss", "lat": -3.117102182959738, "lon": -53.26718238076334, "alt_km": 35770.43128045308, "timestamp": "2025-12-19T08:58:49.581035+00:00", "meta": {"OBJECT_NAME": "BEIDOU-2 G6 (C02)", "OBJECT_ID": "2012-059A", "EPOCH": "2025-12-19T01:33:51.788736", "MEAN_MOTION": 1.00269092, "ECCENTRICITY": 0.0008257, "INCLINATION": 3.9642, "RA_OF_ASC_NODE": 75.4471, "ARG_OF_PERICENTER": 292.1855, "MEAN_ANOMALY": 187.7113, "EPHEMERIS_TYPE": 0, "CLASSIFICATION_TYPE": "U", "NORAD_CAT_ID": 38953, "ELEMENT_SET_NO": 999, "REV_AT_EPOCH": 4810, "BSTAR": 0, "MEAN_MOTION_DOT": -1.53e-06, "MEAN_MOTION_DDOT": 0}, "tle": {"line1": "1 38953U 12059A   25353.06518274 -.00000153  00000+0  00000+0 0  9994", "line2": "2 38953   3.9642  75.4471 0008257 292.1855 187.7113  1.00269092 48106"}}, "geometry": {"type": "Point", "coordinates": [-53.26718238076334, -3.117102182959738]}}, {"type": "Feature", "properties": {"norad_id": 38977, "name": "LUCH 5B (SDCM/PRN 125)", "group": "gnss", "lat": 4.257552279048962, "lon": -153.10512322487958, "alt_km": 35763.736753169054, "timestamp": "2025-12-19T08:58:49.581056+00:00", "meta": {"OBJECT_NAME": "LUCH 5B (SDCM/PRN 125)", "OBJECT_ID": "2012-061A", "EPOCH": "2025-12-18T09:47:38.039424", "MEAN_MOTION": 1.00272499, "ECCENTRICITY": 0.00066801, "INCLINATION": 10.0932, "RA_OF_ASC_NODE": 51.652, "ARG_OF_PERICENTER": 194.7877, "MEAN_ANOMALY": 331.4094, "EPHEMERIS_TYPE": 0, "CLASSIFICATION_TYPE": "U", "NORAD_CAT_ID": 38977, "ELEMENT_SET_NO": 999, "REV_AT_EPOCH": 4779, "BSTAR": 0, "MEAN_MOTION_DOT": -1.22e-06, "MEAN_MOTION_DDOT": 0}, "tle": {"line1": "1 38977U 12061A   25352.40807916 -.00000122  00000+0  00000+0 0  9990", "line2": "2 38977  10.0932  51.6520 0006680 194.7877 331.4094  1.00272499 47798"}}, "geometry": {"type": "Point", "coordinates": [-153.10512322487958, 4.257552279048962]}}, {"type": "Feature", "properties": {"norad_id": 39155, "name": "COSMOS 2485 (747)", "group": "gnss", "lat": 30.93574643568426, "lon": -116.31480576292275, "alt_km": 19119.957333561764, "timestamp": "2025-12-19T08:58:49.581068+00:00", "meta": {"OBJECT_NAME": "COSMOS 2485 (747)", "OBJECT_ID": "2013-019A", "EPOCH": "2025-12-18T17:09:02.723904", "MEAN_MOTION": 2.13103162, "ECCENTRICITY": 0.00247945, "INCLINATION": 65.3168, "RA_OF_ASC_NODE": 79.6662, "ARG_OF_PERICENTER": 230.0008, "MEAN_ANOMALY": 129.8045, "EPHEMERIS_TYPE": 0, "CLASSIFICATION_TYPE": "U", "NORAD_CAT_ID": 39155, "ELEMENT_SET_NO": 999, "REV_AT_EPOCH": 9843, "BSTAR": 0, "MEAN_MOTION_DOT": -3.5e-07, "MEAN_MOTION_DDOT": 0}, "tle": {"line1": "1 39155U 13019A   25352.71461486 -.00000035  00000+0  00000+0 0  9998", "line2": "2 39155  65.3168  79.6662 0024794 230.0008 129.8045  2.13103162 98431"}}, "geometry": {"type": "Point", "coordinates": [-116.31480576292275, 30.93574643568426]}}, {"type": "Feature", "properties": {"norad_id": 39166, "name": "GPS BIIF-4  (PRN 27)", "group": "gnss", "lat": 38.03235123560247, "lon": 62.613664157786715, "alt_km": 20123.26461236643, "timestamp": "2025-12-19T08:58:49.581082+00:00", "meta": {"OBJECT_NAME": "GPS BIIF-4  (PRN 27)", "OBJECT_ID": "2013-023A", "EPOCH": "2025-12-18T04:47:18.266208", "MEAN_MOTION": 2.00564721, "ECCENTRICITY": 0.01382651, "INCLINATION": 54.6473, "RA_OF_ASC_NODE": 276.3463, "ARG_OF_PERICENTER": 48.6769, "MEAN_ANOMALY": 312.5268, "EPHEMERIS_TYPE": 0, "CLASSIFICATION_TYPE": "U", "NORAD_CAT_ID": 39166, "ELEMENT_SET_NO": 999, "REV_AT_EPOCH": 9225, "BSTAR": 0, "MEAN_MOTION_DOT": -3.9e-07, "MEAN_MOTION_DDOT": 0}, "tle": {"line1": "1 39166U 13023A   25352.19951697 -.00000039  00000+0  00000+0 0  9999", "line2": "2 39166  54.6473 276.3463 0138265  48.6769 312.5268  2.00564721 92254"}}, "geometry": {"type": "Point", "coordinates": [62.613664157786715, 38.03235123560247]}}, {"type": "Feature", "properties": {"norad_id": 39199, "name": "IRNSS-1A", "group": "gnss", "lat": -17.51002024985927, "lon": -87.12588047676996, "alt_km": 35684.711438919825, "timestamp": "2025-12-19T08:58:49.581094+00:00", "meta": {"OBJECT_NAME": "IRNSS-1A", "OBJECT_ID": "2013-034A", "EPOCH": "2025-12-18T18:41:43.776960", "MEAN_MOTION": 1.00272479, "ECCENTRICITY": 0.0024472, "INCLINATION": 35.3183, "RA_OF_ASC_NODE": 66.4661, "ARG_OF_PERICENTER": 211.0525, "MEAN_ANOMALY": 145.3931, "EPHEMERIS_TYPE": 0, "CLASSIFICATION_TYPE": "U", "NORAD_CAT_ID": 39199, "ELEMENT_SET_NO": 999, "REV_AT_EPOCH": 4555, "BSTAR": 0, "MEAN_MOTION_DOT": 6.5e-07, "MEAN_MOTION_DDOT": 0}, "tle": {"line1": "1 39199U 13034A   25352.77897890  .00000065  00000+0  00000+0 0  9993", "line2": "2 39199  35.3183  66.4661 0024472 211.0525 145.3931  1.00272479 45557"}}, "geometry": {"type": "Point", "coordinates": [-87.12588047676996, -17.51002024985927]}}, {"type": "Feature", "properties": {"norad_id": 39533, "name": "GPS BIIF-5  (PRN 30)", "group": "gnss", "lat": 37.218056875530735, "lon": -57.40699898775153, "alt_km": 20194.727903180188, "timestamp": "2025-12-19T08:58:49.581105+00:00", "meta": {"OBJECT_NAME": "GPS BIIF-5  (PRN 30)", "OBJECT_ID": "2014-008A", "EPOCH": "2025-12-17T04:42:21.782016", "MEAN_MOTION": 2.00574699, "ECCENTRICITY": 0.00793343, "INCLINATION": 53.632, "RA_OF_ASC_NODE": 156.7429, "ARG_OF_PERICENTER": 226.5757, "MEAN_ANOMALY": 132.7662, "EPHEMERIS_TYPE": 0, "CLASSIFICATION_TYPE": "U", "NORAD_CAT_ID": 39533, "ELEMENT_SET_NO": 999, "REV_AT_EPOCH": 8603, "BSTAR": 0, "MEAN_MOTION_DOT": 7.8e-07, "MEAN_MOTION_DDOT": 0}, "tle": {"line1": "1 39533U 14008A   25351.19608544  .00000078  00000+0  00000+0 0  9992", "line2": "2 39533  53.6320 156.7429 0079334 226.5757 132.7662  2.00574699 86034"}}, "geometry": {"type": "Point", "coordinates": [-57.40699898775153, 37.218056875530735]}}, {"type": "Feature", "properties": {"norad_id": 39617, "name": "ASTRA 5B (EGNOS/PRN 123)", "group": "gnss", "lat": -0.06711985630841315, "lon": -113.58551798414977, "alt_km": 35770.57354665774, "timestamp": "2025-12-19T08:58:49.581117+00:00", "meta": {"OBJECT_NAME": "ASTRA 5B (EGNOS/PRN 123)", "OBJECT_ID": "2014-011B", "EPOCH": "2025-12-18T23:17:38.719392", "MEAN_MOTION": 1.00270396, "ECCENTRICITY": 0.00038418, "INCLINATION": 0.0428, "RA_OF_ASC_NODE": 355.0527, "ARG_OF_PERICENTER": 264.3848, "MEAN_ANOMALY": 201.3069, "EPHEMERIS_TYPE": 0, "CLASSIFICATION_TYPE": "U", "NORAD_CAT_ID": 39617, "ELEMENT_SET_NO": 999, "REV_AT_EPOCH": 4286, "BSTAR": 0, "MEAN_MOTION_DOT": 1.62e-06, "MEAN_MOTION_DDOT": 0}, "tle": {"line1": "1 39617U 14011B   25352.97058703  .00000162  00000+0  00000+0 0  9996", "line2": "2 39617   0.0428 355.0527 0003841 264.3848 201.3069  1.00270396 42869"}}, "geometry": {"type": "Point", "coordinates": [-113.58551798414977, -0.06711985630841315]}}]}